     2.11           N: GPS NAV DATA                         RINEX VERSION / TYPE
teqc  2016Apr1      IGN                 20231109 19:30:02UTCPGM / RUN BY / DATE
    18                                                      LEAP SECONDS
    2.5146D-08 -7.4506D-09 -1.1921D-07  1.7881D-07          ION ALPHA
    1.3312D+05 -8.1920D+04  6.5536D+04 -3.9322D+05          ION BETA
   -1.862645149231D-09-7.105427357601D-15   589824     2287 DELTA-UTC: A0,A1,T,W
                                                            END OF HEADER
24 23 11  9 12  0  0.0-3.670663572848D-04-9.094947017729D-12 0.000000000000D+00
    5.700000000000D+01-9.593750000000D+00 4.976635868288D-09-1.255060965870D+00
   -4.749745130539D-07 1.482425874565D-02 1.139193773270D-05 5.153632099152D+03
    3.888000000000D+05 3.520399332047D-07 2.419053993937D+00 2.011656761169D-07
    9.340202637731D-01 1.434062500000D+02 9.402111692377D-01-8.164268645988D-09
   -3.135844906242D-10 1.000000000000D+00 2.287000000000D+03 0.000000000000D+00
    2.000000000000D+00 0.000000000000D+00 2.328306436539D-09 5.700000000000D+01
    3.816180000000D+05 4.000000000000D+00
23 23 11  9 12  0  0.0 9.603938087820D-05 6.252776074690D-12 0.000000000000D+00
    3.200000000000D+01 3.956250000000D+01 4.345538151960D-09-2.496687590750D+00
    2.071261405940D-06 3.843117854560D-03 7.672235369680D-06 5.153689510350D+03
    3.888000000000D+05-9.126961231230D-08 3.875409056970D-01-9.126961231230D-08
    9.764443087560D-01 2.420312500000D+02-3.048739181850D+00-7.937830642510D-09
    4.914490422540D-10 1.000000000000D+00 2.287000000000D+03 0.000000000000D+00
    2.000000000000D+00 0.000000000000D+00-8.381903171540D-09 2.880000000000D+02
    3.816180000000D+05 4.000000000000D+00
10 23 11  9 12  0  0.0-6.068591028450D-05-1.477928890380D-12 0.000000000000D+00
    1.450000000000D+02 4.109375000000D+01 4.212675474840D-09 2.597348397350D+00
    2.132728695870D-06 9.054086520340D-03 7.517635822300D-06 5.153686523440D+03
    3.888000000000D+05-7.636845111850D-08 4.155469333350D-01-1.545995473860D-07
    9.812869903820D-01 2.469687500000D+02-2.430689320200D+00-7.773895242510D-09
    5.114498753690D-10 1.000000000000D+00 2.287000000000D+03 0.000000000000D+00
    2.000000000000D+00 0.000000000000D+00 2.328306436540D-09 1.450000000000D+02
    3.850680000000D+05 4.000000000000D+00
26 23 11  9 12  0  0.0 2.178344875574D-04-2.614797267597D-12 0.000000000000D+00
    3.400000000000D+01 8.831250000000D+01 5.124856327980D-09 2.367226235469D+00
    4.505738615990D-06 8.494716254063D-03 6.984919309616D-06 5.153784564972D+03
    3.888000000000D+05-1.359730958939D-07-2.798868838659D+00-8.009374141693D-08
    9.329463809615D-01 2.319375000000D+02 4.894286090204D-01-8.387135072127D-09
    2.617966191657D-10 1.000000000000D+00 2.287000000000D+03 0.000000000000D+00
    2.000000000000D+00 0.000000000000D+00 6.984919309616D-09 3.400000000000D+01
    3.816180000000D+05 4.000000000000D+00
31 23 11  9 12  0  0.0-2.255677245557D-04-3.410605131648D-13 0.000000000000D+00
    5.100000000000D+01-6.062500000000D+00 4.444470844336D-09-3.137405874211D+00
   -4.116445779800D-07 1.060186489485D-02 1.157261431217D-05 5.153653106689D+03
    3.888000000000D+05-5.029141902924D-08 2.533244945100D+00-1.415610313416D-07
    9.545247971377D-01 1.521250000000D+02 6.194796885241D-01-7.790681656019D-09
   -2.375098932404D-10 1.000000000000D+00 2.287000000000D+03 0.000000000000D+00
    2.000000000000D+00 0.000000000000D+00-1.303851604462D-08 5.100000000000D+01
    3.816180000000D+05 4.000000000000D+00
 1 23 11  9 12  0  0.0 1.632031053305D-04 0.000000000000D+00 0.000000000000D+00
    8.300000000000D+01-2.493750000000D+01 3.642294573332D-09-1.559398012284D+00
   -1.272186636925D-06 1.291015988681D-02 1.062266528606D-05 5.153633508682D+03
    3.888000000000D+05 3.017485141754D-07-6.104804133711D-01 2.421438694000D-08
    9.906198781513D-01 1.868437500000D+02 9.896082468928D-01-7.495312209839D-09
    6.285976121851D-11 1.000000000000D+00 2.287000000000D+03 0.000000000000D+00
    2.800000000000D+00 6.300000000000D+01 5.122274160385D-09 8.300000000000D+01
    3.816180000000D+05 4.000000000000D+00
32 23 11  9 12  0  0.0-5.836091004312D-04-4.661160346586D-12 0.000000000000D+00
    8.400000000000D+01-4.703125000000D+01 4.976993026022D-09 1.284697093865D+00
   -2.425163984299D-06 7.095990818925D-03 5.299225449562D-06 5.153591421127D+03
    3.888000000000D+05-1.043081283569D-07 1.454141009667D+00 6.891787052155D-08
    9.601740776644D-01 2.800312500000D+02-2.222774755079D+00-8.446780413737D-09
   -3.125130174216D-10 1.000000000000D+00 2.287000000000D+03 0.000000000000D+00
    2.000000000000D+00 0.000000000000D+00 4.656612873077D-10 8.400000000000D+01
    3.826080000000D+05 4.000000000000D+00
28 23 11  9 12  0  0.0-4.236353561282D-05-8.185452315956D-12 0.000000000000D+00
    4.600000000000D+01-1.415625000000D+01 4.366610458281D-09 2.627283083515D+00
   -6.891787052155D-07 7.740104338154D-04 1.129135489464D-05 5.153783781052D+03
    3.888000000000D+05 2.793967723846D-08 2.477177322344D+00 1.862645149231D-08
    9.615730062439D-01 1.631250000000D+02 1.552598224222D+00-7.865684780200D-09
   -2.571535686212D-10 1.000000000000D+00 2.287000000000D+03 0.000000000000D+00
    2.000000000000D+00 0.000000000000D+00-9.778887033463D-09 4.600000000000D+01
    3.816180000000D+05 4.000000000000D+00
18 23 11  9 13 29 36.0-4.740972071886D-04-1.102762325900D-11 0.000000000000D+00
    2.340000000000D+02-3.406250000000D+01 3.908734225178D-09-7.130195994655D-01
   -1.790001988411D-06 3.825890948065D-03 1.107901334763D-05 5.153653100967D+03
    3.941760000000D+05 8.754432201385D-08-6.119473149763D-01-2.793967723846D-08
    9.745159486609D-01 1.698437500000D+02-3.048380901506D+00-7.774966448437D-09
    5.071639982979D-11 1.000000000000D+00 2.287000000000D+03 0.000000000000D+00
    2.000000000000D+00 0.000000000000D+00-8.381903171539D-09 1.002000000000D+03
    3.883200000000D+05
13 23 11  9 13 59 44.0 5.934019573033D-04 4.206412995700D-12 0.000000000000D+00
    2.400000000000D+01-5.084375000000D+01 4.733768488308D-09 1.254279486735D+00
   -2.598389983177D-06 7.686019875109D-03 6.688758730888D-06 5.153661458969D+03
    3.959840000000D+05-1.359730958939D-07 1.603168237409D+00 1.490116119385D-07
    9.700245122031D-01 2.564062500000D+02 9.526413559420D-01-8.252129646280D-09
   -3.593006725477D-10 1.000000000000D+00 2.287000000000D+03 0.000000000000D+00
    2.000000000000D+00 0.000000000000D+00-1.164153218269D-08 2.400000000000D+01
    3.888300000000D+05
 8 23 11  9 13 59 44.0-1.512658782303D-04-1.818989403546D-12 0.000000000000D+00
    1.400000000000D+01-3.331250000000D+01 4.825915222995D-09 1.585450305512D+00
   -1.640990376472D-06 8.868846343830D-03 3.630295395851D-06 5.153774547577D+03
    3.959840000000D+05-5.401670932770D-08-1.707972510768D+00 6.519258022308D-08
    9.559522701749D-01 3.090312500000D+02 2.759832772970D-01-8.450352417810D-09
   -3.375140722461D-10 1.000000000000D+00 2.287000000000D+03 0.000000000000D+00
    2.000000000000D+00 0.000000000000D+00 5.122274160385D-09 1.400000000000D+01
    3.890100000000D+05
17 23 11  9 13 59 44.0 7.234043441713D-04-3.410605131648D-13 0.000000000000D+00
    0.000000000000D+00-4.756250000000D+01 4.276606624387D-09 1.642589527464D+00
   -2.674758434296D-06 1.383336121216D-02 4.226341843605D-06 5.153612363815D+03
    3.959840000000D+05 1.993030309677D-07-1.616312841620D+00-2.402812242508D-07
    9.716145973622D-01 3.000312500000D+02-1.379400612772D+00-8.083193669961D-09
   -2.664396758778D-10 1.000000000000D+00 2.287000000000D+03 0.000000000000D+00
    2.000000000000D+00 0.000000000000D+00-1.117587089539D-08 0.000000000000D+00
    3.922200000000D+05
21 23 11  9 13 59 44.0 1.447163522243D-04-1.023181539495D-12 0.000000000000D+00
    8.000000000000D+00-5.943750000000D+01 4.241962409047D-09 1.625864356645D+00
   -2.956017851830D-06 2.487200917676D-02 9.404495358467D-06 5.153757213593D+03
    3.959840000000D+05 3.594905138016D-07-7.187762991408D-01 2.831220626831D-07
    9.619900973546D-01 1.974375000000D+02-6.858977024610D-01-7.673533919203D-09
   -2.882262914962D-10 1.000000000000D+00 2.287000000000D+03 0.000000000000D+00
    2.000000000000D+00 0.000000000000D+00-1.024454832077D-08 8.000000000000D+00
    3.893160000000D+05 4.000000000000D+00
22 23 11  9 14  0  0.0 8.709542453289D-05-7.048583938740D-12 0.000000000000D+00
    9.900000000000D+01 8.400000000000D+01 4.455185553809D-09 2.196208298811D+00
    4.343688488007D-06 1.507692143787D-02 5.079433321953D-06 5.153728830338D+03
    3.960000000000D+05 1.918524503708D-07-2.634563368482D+00 7.636845111847D-08
    9.631583149756D-01 2.773750000000D+02-1.168016804725D+00-7.938901980253D-09
    1.046472145050D-10 1.000000000000D+00 2.287000000000D+03 0.000000000000D+00
    2.000000000000D+00 0.000000000000D+00-1.117587089539D-08 9.900000000000D+01
    3.888300000000D+05
 5 23 11  9 14  0  0.0-1.497268676758D-04-1.477928890381D-12 0.000000000000D+00
    4.900000000000D+01 3.865625000000D+01 4.581262036396D-09 1.943159197020D+00
    2.006068825722D-06 5.899377632886D-03 7.119029760361D-06 5.153751893997D+03
    3.960000000000D+05 1.862645149231D-09 3.693702650227D-01-1.601874828339D-07
    9.686165544931D-01 2.471562500000D+02 1.240240979598D+00-8.053192779300D-09
    5.264504943092D-10 1.000000000000D+00 2.287000000000D+03 0.000000000000D+00
    2.000000000000D+00 0.000000000000D+00-1.117587089539D-08 4.900000000000D+01
    3.888300000000D+05
